ATLAS CENTAUR 2         
1 00694U 63047A   26171.45988245  .00000848  00000+0  88115-4 0  9997
2 00694  30.3587 341.0931 0546005 266.3690  87.4341 14.12524868146166
THOR AGENA D R/B        
1 00733U 64002A   26171.08730830  .00000092  00000+0  50193-4 0  9993
2 00733  99.1153 189.9758 0032186 321.9802  37.9109 14.34066354252975
SL-3 R/B                
1 00877U 64053B   26171.34087819  .00000039  00000+0  31839-4 0  9996
2 00877  65.0776  30.2658 0080954 260.1229  99.0725 14.61427795281792
SL-8 R/B                
1 02802U 67045B   26171.40744869  .00000172  00000+0  55142-4 0  9993
2 02802  74.0095 156.2439 0063315 139.7859 220.8009 14.45683390103861
SL-8 R/B                
1 03230U 68040B   26171.30966101  .00002007  00000+0  14802-3 0  9995
2 03230  74.0309 103.9051 0025973 256.5750 103.2543 15.03830802105439
OAO 2                   
1 03597U 68110A   26171.36582830  .00000147  00000+0  44650-4 0  9996
2 03597  34.9945  51.9301 0006143 296.6747  63.3315 14.47353113 33980
ISIS 1                  
1 03669U 69009A   26171.37783306  .00000047  00000+0  33808-4 0  9998
2 03669  88.4426 144.0490 1706318 241.7756 100.0821 11.30434104360134
SERT 2                  
1 04327U 70009A   26171.43080145  .00000008  00000+0  67682-4 0  9994
2 04327  99.2841 108.9699 0003929 263.0931 205.2164 13.58739486793845
SL-3 R/B                
1 05118U 71028B   26171.43356853  .00044626  00000+0  36800-3 0  9998
2 05118  81.2330 284.2794 0014087 268.2280  91.7365 15.70016407  4756
ASTEX 1                 
1 05560U 71089A   26171.45181061  .00000260  00000+0  66146-4 0  9998
2 05560  92.6996 184.9072 0017990  96.6331 263.6924 14.50853638877203
SL-8 R/B                
1 05730U 71119B   26171.07520018  .00002617  00000+0  13624-3 0  9998
2 05730  73.8878 344.0478 0543726 289.4327  64.8851 14.39521149670217
OAO 3 (COPERNICUS)      
1 06153U 72065A   26171.47049711  .00000202  00000+0  45684-4 0  9999
2 06153  35.0063  71.6957 0007324 279.7806 246.6682 14.60061684861223
ATLAS CENTAUR R/B       
1 06155U 72065B   26171.38538159  .00000750  00000+0  10485-3 0  9998
2 06155  35.0020  63.7919 0033227 156.1715 204.0531 14.77926028856467
SL-8 R/B                
1 08459U 75112B   26171.44905962  .00000198  00000+0  73575-4 0  9996
2 08459  74.0589 189.8731 0016840 256.4490 103.4789 14.38247985646646
SL-3 R/B                
1 10114U 77057B   26171.44932051  .00009524  00000+0  18440-3 0  9997
2 10114  97.5846 348.1477 0005481 270.3163  89.7459 15.47942080684215
SEASAT 1                
1 10967U 78064A   26171.42130973  .00000153  00000+0  81052-4 0  9992
2 10967 108.0177 341.0778 0001736 240.3380 119.7593 14.46245232521361
SL-14 R/B               
1 11267U 79011B   26170.99228781  .00000382  00000+0  35046-4 0  9991
2 11267  82.5237 359.4916 0017501  77.0548 283.2625 14.92016398544035
SL-8 R/B                
1 11574U 79089B   26171.39537659  .00000153  00000+0  54296-4 0  9993
2 11574  74.0692 260.9186 0015063  43.4442 316.7899 14.42405235450918
SL-14 R/B               
1 11672U 80005B   26171.07268606  .00000330  00000+0  30691-4 0  9990
2 11672  82.5137 210.1032 0015764 176.2237 183.9104 14.91030703491744
SL-8 R/B                
1 12139U 81003B   26171.32422449  .00015379  00000+0  37423-3 0  9991
2 12139  82.9369 194.8563 0250699 180.2463 179.8693 15.14312178330198
SL-3 R/B                
1 12465U 81046B   26171.42929031  .00009505  00000+0  20483-3 0  9992
2 12465  81.2300 166.1632 0018212  27.0043 333.2144 15.44255582454272
SL-3 R/B                
1 12904U 81103B   26171.40624712  .00003813  00000+0  16417-3 0  9998
2 12904  81.1583  92.8515 0011585 304.2957  55.7178 15.22306802988854
SL-3 R/B                
1 13068U 82013B   26171.37677220  .00003004  00000+0  12659-3 0  9995
2 13068  81.1737  40.3138 0021614 189.9619 170.1188 15.22803669419971
SL-3 R/B                
1 13154U 82039B   26171.41316006  .00002886  00000+0  17199-3 0  9997
2 13154  81.1452  97.3585 0028423 345.3909  14.6491 15.10556543397140
SL-3 R/B                
1 13403U 82079B   26171.39525799  .00003980  00000+0  15341-3 0  9999
2 13403  81.1459  71.6927 0023963 174.6099 185.5398 15.25810833393350
SL-14 R/B               
1 13553U 82092B   26171.43828432  .00000281  00000+0  28765-4 0  9991
2 13553  82.5679  45.2613 0019372 324.0622 209.2871 14.86749668344197
SL-3 R/B                
1 13819U 83010B   26171.22386465  .00011434  00000+0  20746-3 0  9991
2 13819  81.1007 236.2255 0015294  52.2916 307.9714 15.49310432373806
SL-3 R/B                
1 14208U 83075B   26171.44668627  .00007944  00000+0  19656-3 0  9991
2 14208  97.6107 180.0842 0019624 216.5803 143.4104 15.40541433345961
COSMOS 1536             
1 14699U 84013A   26171.04934553  .00004515  00000+0  17893-3 0  9990
2 14699  82.5443   5.9936 0012583 284.0426  75.9412 15.25076395288216
SL-14 R/B               
1 14820U 84027B   26171.44696137  .00000332  00000+0  35086-4 0  9996
2 14820  82.5412 148.6601 0017847 358.5562   1.5600 14.86061732262893
SL-8 R/B                
1 15483U 85006B   26171.16384985  .00000153  00000+0  59355-4 0  9990
2 15483  74.0460  72.5867 0018936 319.2357 191.2299 14.37836124168755
